STARLINK-1088           
1 44966U 20001BE  25044.91668981  .00149929  00000+0  12042-2 0  9999
2 44966  53.0566 138.9135 0002413 234.0826  35.6870 15.70023534  5915
STARLINK-1090           
1 44968U 20001BG  25044.56928596  .00000074  00000+0  23837-4 0  9996
2 44968  53.0545 253.4483 0001547  89.0510 271.0656 15.06398321281763
STARLINK-1092           
1 44969U 20001BH  25044.92616943  .00021451  00000+0  56525-3 0  9998
2 44969  53.0492 245.1496 0000681  93.5818 266.5263 15.38483082281909
STARLINK-1093           
1 44970U 20001BJ  25044.50363693  .00055359  00000+0  70682-3 0  9999
2 44970  53.0480 230.6743 0003842 175.0196 185.0855 15.58743832282063
STARLINK-1107           
1 44972U 20001BL  25044.53967110  .00048212  00000+0  18171-2 0  9992
2 44972  53.0278 239.7490 0002786 174.3075 185.7954 15.26622337281958
STARLINK-1115           
1 44973U 20001BM  25044.91668981  .00198663  00000+0  50581-2 0  9996
2 44973  53.0431 225.1587 0005179 178.6724  14.9041 15.38313151  5715
STARLINK-1132           
1 45044U 20006A   25044.72777136  .00001068  00000+0  90589-4 0  9999
2 45044  53.0534 212.7349 0001339  86.6547 273.4595 15.06400483278114
STARLINK-1131           
1 45047U 20006D   25044.50484618 -.00000280  00000+0  11815-6 0  9991
2 45047  53.0552 234.2776 0001553  88.0180 272.0987 15.06399230277797
STARLINK-1134           
1 45048U 20006E   25044.78430933  .00008202  00000+0  52545-3 0  9996
2 45048  53.0522 231.7053 0002397 141.1719 218.9444 15.09352013277856
STARLINK-1148           
1 45052U 20006J   25044.80829454  .00054146  00000+0  11171-2 0  9991
2 45052  53.0537 200.1509 0004530 193.8638 166.2244 15.45361458278305
STARLINK-1156           
1 45054U 20006L   25044.54163150 -.00001198  00000+0 -61572-4 0  9991
2 45054  53.0531 233.5719 0001508  97.7779 262.3381 15.06399864278145
STARLINK-1159           
1 45057U 20006P   25044.55637345 -.00000247  00000+0  23051-5 0  9991
2 45057  53.0547 233.5037 0001105  98.2020 261.9095 15.06402717278156
STARLINK-1162           
1 45058U 20006Q   25045.25002315  .00208491  00000+0  19110-2 0  9991
2 45058  53.0481 214.2184 0003441 258.2794 231.6859 15.66589055278489
STARLINK-1166           
1 45060U 20006S   25044.50109520 -.00001280  00000+0 -67061-4 0  9996
2 45060  53.0547 233.7506 0001684 110.8562 249.2608 15.06399904277800
STARLINK-1169           
1 45061U 20006T   25044.77384845 -.00000780  00000+0 -33464-4 0  9995
2 45061  53.0554 232.5312 0001454  97.6872 262.4282 15.06400806277845
STARLINK-1171           
1 45062U 20006U   25045.22353652  .00002414  00000+0  18093-3 0  9993
2 45062  53.0544 230.5093 0001316  90.7637 269.3503 15.06397250278255
STARLINK-1133           
1 45064U 20006W   25044.44027176  .00000169  00000+0  30223-4 0  9992
2 45064  53.0545 214.0264 0001247  99.2574 260.8556 15.06399746278078
STARLINK-1150           
1 45067U 20006Z   25044.76462615 -.00000113  00000+0  11327-4 0  9995
2 45067  53.0541 212.5725 0001312 101.1181 258.9955 15.06402170278125
STARLINK-1161           
1 45068U 20006AA  25044.68175213  .00117163  00000+0  29992-2 0  9990
2 45068  53.0310 191.6873 0002356 245.9724 114.1032 15.38526879278408
STARLINK-1167           
1 45071U 20006AD  25044.73145944  .00000849  00000+0  75894-4 0  9994
2 45071  53.0528 212.7186 0001406  86.9523 273.1627 15.06399476278457
STARLINK-1168           
1 45072U 20006AE  25044.46975909 -.00001543  00000+0 -84702-4 0  9999
2 45072  53.0543 213.8932 0001308  91.2203 268.8936 15.06395842278076
STARLINK-1170           
1 45073U 20006AF  25044.91668981  .01259293  00000+0  56491-1 0  9996
2 45073  53.0533 211.5883 0001334  69.4476 209.9876 15.18085923  5733
STARLINK-1172           
1 45074U 20006AG  25044.87889769 -.00000040  00000+0  16219-4 0  9992
2 45074  53.0532 212.0569 0001344  83.7462 276.3680 15.06390899278130
STARLINK-1174           
1 45075U 20006AH  25044.91668981  .01252382  00000+0  51905-1 0  9995
2 45075  53.0539 211.5419 0001211  68.7826 135.8674 15.20369161  5736
STARLINK-1177           
1 45078U 20006AL  25044.34954386  .00617292  19344-3  89784-3 0  9999
2 45078  53.0388 170.0897 0005455 357.3479   2.7523 16.04634298278663
STARLINK-1153           
1 45080U 20006AN  25044.85682058 -.00000516  00000+0 -15757-4 0  9994
2 45080  53.0581 212.1528 0000981 102.0361 258.0738 15.06360549278136
STARLINK-1151           
1 45081U 20006AP  25044.84205341 -.00000500  00000+0 -14692-4 0  9990
2 45081  53.0547 212.2999 0001435  91.8012 268.3141 15.06394980278133
STARLINK-1190           
1 45083U 20006AR  25044.92129790  .00004460  00000+0  31803-3 0  9993
2 45083  53.0531 231.8663 0001341  94.3206 265.7936 15.06408688277865
STARLINK-1173           
1 45084U 20006AS  25044.70381424  .00001362  00000+0  11033-3 0  9995
2 45084  53.0527 192.8453 0001323  89.2199 270.8942 15.06399676278847
STARLINK-1179           
1 45085U 20006AT  25044.70012516  .00001337  00000+0  10866-3 0  9994
2 45085  53.0526 192.8624 0001430  86.9891 273.1261 15.06398035278735
STARLINK-1185           
1 45087U 20006AV  25044.68537800  .00000485  00000+0  51443-4 0  9991
2 45087  53.0546 192.9266 0001304  94.4821 265.6317 15.06402195278392
STARLINK-1183           
1 45088U 20006AW  25044.70749175 -.00000112  00000+0  11406-4 0  9998
2 45088  53.0541 192.8291 0001296  83.5265 276.5871 15.06404097278395
STARLINK-1176           
1 45090U 20006AY  25044.69180481 -.00000142  00000+0  93727-5 0  9998
2 45090  53.0544 192.8889 0001101  90.2755 269.8360 15.06401510278393
STARLINK-1137           
1 45092U 20006BA  25044.91668981  .01218338  00000+0  48258-1 0  9994
2 45092  53.0509 188.8835 0001343  87.5833 297.8293 15.22011103  5809
STARLINK-1142           
1 45093U 20006BB  25044.98597791  .00037328  00000+0  17075-2 0  9993
2 45093  53.0461 182.3388 0001638 346.8409  13.2543 15.20201201278916
STARLINK-1146           
1 45094U 20006BC  25044.80975804  .00009716  00000+0  66965-3 0  9993
2 45094  53.0532 192.3576 0001396  88.9163 271.1985 15.06433045278415
STARLINK-1147           
1 45095U 20006BD  25044.67073122  .00003770  00000+0  27192-3 0  9994
2 45095  53.0544 193.5704 0001307  78.7161 281.3975 15.06392794278385
STARLINK-1152           
1 45096U 20006BE  25044.70617372  .00008283  00000+0  54796-3 0  9994
2 45096  53.0539 192.4706 0000918 172.7724 187.3280 15.08150461278397
STARLINK-1184           
1 45098U 20006BG  25044.39050810  .00000008  00000+0  19407-4 0  9997
2 45098  53.0535 194.2481 0001294  92.9894 267.1243 15.06394640278342
STARLINK-1193           
1 45100U 20006BJ  25044.45317127 -.00000992  00000+0 -47716-4 0  9993
2 45100  53.0562 193.9719 0001438  97.4371 262.6782 15.06397649278357
STARLINK-1143           
1 45179U 20012B   25045.12192212  .00053493  00000+0  30023-2 0  9990
2 45179  53.0523 349.8885 0008766  66.9403 293.2513 15.12821258275639
STARLINK-1200           
1 45181U 20012D   25045.14245291  .00001303  00000+0  10635-3 0  9992
2 45181  53.0582 350.8763 0001879  84.6374 275.4829 15.06395180275620
STARLINK-1201           
1 45182U 20012E   25044.96366925 -.00006897  00000+0 -44473-3 0  9992
2 45182  53.0566 331.6769 0002064  96.8578 263.2646 15.06384224276376
STARLINK-1202           
1 45183U 20012F   25044.58219365  .00007758  00000+0  53916-3 0  9993
2 45183  53.0550 353.3912 0001198  91.0894 269.0233 15.06397858275547
STARLINK-1205           
1 45184U 20012G   25045.25002315  .00167234  00000+0  79004-3 0  9996
2 45184  53.0396 289.2145 0005871 135.8015 184.3004 15.82034811276474
STARLINK-1216           
1 45185U 20012H   25045.10558148  .00011102  00000+0  76278-3 0  9993
2 45185  53.0550 351.0382 0001264 110.8970 249.2155 15.06412260275621
STARLINK-1224           
1 45186U 20012J   25045.05398450  .00005397  00000+0  38089-3 0  9993
2 45186  53.0559 351.2688 0001667 102.0176 258.1000 15.06402974275618
STARLINK-1225           
1 45187U 20012K   25044.85863809  .00005298  00000+0  37424-3 0  9998
2 45187  53.0543 352.1449 0001342  81.0639 279.0502 15.06402254276225
STARLINK-1228           
1 45188U 20012L   25045.12305129  .00002762  00000+0  20431-3 0  9999
2 45188  53.0556 310.6429 0001603  79.5587 280.5582 15.06393351275840
STARLINK-1230           
1 45189U 20012M   25044.86232592  .00007600  00000+0  52850-3 0  9999
2 45189  53.0571 352.1283 0001845  83.0650 277.0549 15.06406303273457
STARLINK-1234           
1 45190U 20012N   25045.14615127  .00005848  00000+0  41101-3 0  9991
2 45190  53.0562 310.8578 0001770 107.0619 253.0564 15.06415362275858
STARLINK-1237           
1 45192U 20012Q   25044.84389994  .00006015  00000+0  42241-3 0  9992
2 45192  53.0558 352.2140 0001566  83.7466 276.3701 15.06395128276234
STARLINK-1240           
1 45194U 20012S   25044.83651417  .00001666  00000+0  13072-3 0  9992
2 45194  53.0549 352.2507 0001821  90.2134 269.9063 15.06396161276127
STARLINK-1244           
1 45196U 20012U   25045.21616604  .00007464  00000+0  51947-3 0  9991
2 45196  53.0574 350.5425 0001474  89.8463 270.2694 15.06398575275383
STARLINK-1269           
1 45197U 20012V   25045.07242935  .00004665  00000+0  33192-3 0  9990
2 45197  53.0556 351.1872 0001608  93.2003 266.9170 15.06393068275355
